STARLINK-31954          
1 60102U 24117M   26068.29720767 -.00004229  00000+0 -13092-3 0  9992
2 60102  53.1621  39.1420 0000831  93.5893 266.5203 15.30157979 96823
2025-313BE              
1 67482U 25313BE  26068.69721505  .00077178  00000+0  26504-2 0  9996
2 67482  97.3989 145.3568 0007208 335.3714  24.7181 15.29801687  7972
